{
    "links": {
        "self": "http://www.neowsapp.com/rest/v1/neo/3174205?api_key=iIulBulltgU6a56xZRHN4H3l9WmuAYTsLGpBGhQ2"
    },
    "id": "3174205",
    "neo_reference_id": "3174205",
    "name": "(2004 BK86)",
    "designation": "2004 BK86",
    "nasa_jpl_url": "http://ssd.jpl.nasa.gov/sbdb.cgi?sstr=3174205",
    "absolute_magnitude_h": 25.4,
    "estimated_diameter": {
        "kilometers": {
            "estimated_diameter_min": 0.022108281,
            "estimated_diameter_max": 0.0494356193
        },
        "meters": {
            "estimated_diameter_min": 22.1082810359,
            "estimated_diameter_max": 49.435619262
        },
        "miles": {
            "estimated_diameter_min": 0.0137374447,
            "estimated_diameter_max": 0.0307178602
        },
        "feet": {
            "estimated_diameter_min": 72.5337327539,
            "estimated_diameter_max": 162.1903570994
        }
    },
    "is_potentially_hazardous_asteroid": false,
    "close_approach_data": [
        {
            "close_approach_date": "2004-02-01",
            "close_approach_date_full": "2004-Feb-01 19:00",
            "epoch_date_close_approach": 1075662000000,
            "relative_velocity": {
                "kilometers_per_second": "16.425187902",
                "kilometers_per_hour": "59130.6764472299",
                "miles_per_hour": "36741.5028180024"
            },
            "miss_distance": {
                "astronomical": "0.0065803834",
                "lunar": "2.5597691426",
                "kilometers": "984411.340423358",
                "miles": "611684.8427360204"
            },
            "orbiting_body": "Moon"
        },
        {
            "close_approach_date": "2004-02-01",
            "close_approach_date_full": "2004-Feb-01 23:04",
            "epoch_date_close_approach": 1075676640000,
            "relative_velocity": {
                "kilometers_per_second": "15.697827261",
                "kilometers_per_hour": "56512.1781394834",
                "miles_per_hour": "35114.4698000584"
            },
            "miss_distance": {
                "astronomical": "0.0045853326",
                "lunar": "1.7836943814",
                "kilometers": "685955.990201562",
                "miles": "426233.2876110756"
            },
            "orbiting_body": "Earth"
        }
    ],
    "orbital_data": {
        "orbit_id": "6",
        "orbit_determination_date": "2017-04-06 09:13:13",
        "first_observation_date": "2004-01-30",
        "last_observation_date": "2004-01-31",
        "data_arc_in_days": 1,
        "observations_used": 7,
        "orbit_uncertainty": "9",
        "minimum_orbit_intersection": ".000953231",
        "jupiter_tisserand_invariant": "4.375",
        "epoch_osculation": "2453035.5",
        "eccentricity": ".53522722174592",
        "semi_major_axis": "1.500106023559762",
        "inclination": "2.382672357203927",
        "ascending_node_longitude": "311.3285386115518",
        "orbital_period": "671.0909146101219",
        "perihelion_distance": ".697208444245551",
        "perihelion_argument": "262.0774354313726",
        "aphelion_distance": "2.303003602873973",
        "perihelion_time": "2453087.069789284845",
        "mean_anomaly": "332.3359030224246",
        "mean_motion": ".5364399847510173",
        "equinox": "J2000",
        "orbit_class": {
            "orbit_class_type": "APO",
            "orbit_class_description": "Near-Earth asteroid orbits which cross the Earth’s orbit similar to that of 1862 Apollo",
            "orbit_class_range": "a (semi-major axis) > 1.0 AU; q (perihelion) < 1.017 AU"
        }
    },
    "is_sentry_object": false
}